[
  {
    "OBJECT_NAME": "STARLINK-6113",
    "OBJECT_ID": "23046W",
    "EPOCH": "2025-11-11T01:44:28.879008",
    "MEAN_MOTION": 15.02537817,
    "ECCENTRICITY": 0.0001262,
    "INCLINATION": 43.003,
    "RA_OF_ASC_NODE": 83.0708,
    "ARG_OF_PERICENTER": 268.0059,
    "MEAN_ANOMALY": 92.0639,
    "EPHEMERIS_TYPE": 0,
    "CLASSIFICATION_TYPE": "U",
    "NORAD_CAT_ID": 56113,
    "ELEMENT_SET_NO": 999,
    "REV_AT_EPOCH": 14422,
    "BSTAR": 6.645900000000001e-05,
    "MEAN_MOTION_DOT": 6.94e-06,
    "MEAN_MOTION_DDOT": 0.0,
    "TLE_LINE1": "1 56113U 23046W   25315.07255647  .00000694  00000+0  66459-4 0  9995",
    "TLE_LINE2": "2 56113  43.0030  83.0708 0001262 268.0059  92.0639 15.02537817144226",
    "COMMENT": "Grouped by shell and plane from TLE"
  },
  {
    "OBJECT_NAME": "STARLINK-6101",
    "OBJECT_ID": "23046Y",
    "EPOCH": "2025-11-10T17:39:27.503136",
    "MEAN_MOTION": 15.02522962,
    "ECCENTRICITY": 0.0001179,
    "INCLINATION": 43.0026,
    "RA_OF_ASC_NODE": 84.8435,
    "ARG_OF_PERICENTER": 278.555,
    "MEAN_ANOMALY": 81.5158,
    "EPHEMERIS_TYPE": 0,
    "CLASSIFICATION_TYPE": "U",
    "NORAD_CAT_ID": 56115,
    "ELEMENT_SET_NO": 999,
    "REV_AT_EPOCH": 14417,
    "BSTAR": 0.00017207,
    "MEAN_MOTION_DOT": 2.121e-05,
    "MEAN_MOTION_DDOT": 0.0,
    "TLE_LINE1": "1 56115U 23046Y   25314.73573499  .00002121  00000+0  17207-3 0  9990",
    "TLE_LINE2": "2 56115  43.0026  84.8435 0001179 278.5550  81.5158 15.02522962144176",
    "COMMENT": "Grouped by shell and plane from TLE"
  },
  {
    "OBJECT_NAME": "STARLINK-6114",
    "OBJECT_ID": "23046Z",
    "EPOCH": "2025-11-11T01:54:04.158720",
    "MEAN_MOTION": 15.02538719,
    "ECCENTRICITY": 0.0001352,
    "INCLINATION": 43.004,
    "RA_OF_ASC_NODE": 83.1212,
    "ARG_OF_PERICENTER": 266.0704,
    "MEAN_ANOMALY": 93.9984,
    "EPHEMERIS_TYPE": 0,
    "CLASSIFICATION_TYPE": "U",
    "NORAD_CAT_ID": 56116,
    "ELEMENT_SET_NO": 999,
    "REV_AT_EPOCH": 14422,
    "BSTAR": 0.00010918,
    "MEAN_MOTION_DOT": 1.272e-05,
    "MEAN_MOTION_DDOT": 0.0,
    "TLE_LINE1": "1 56116U 23046Z   25315.07921480  .00001272  00000+0  10918-3 0  9994",
    "TLE_LINE2": "2 56116  43.0040  83.1212 0001352 266.0704  93.9984 15.02538719144221",
    "COMMENT": "Grouped by shell and plane from TLE"
  },
  {
    "OBJECT_NAME": "STARLINK-6094",
    "OBJECT_ID": "23046AF",
    "EPOCH": "2025-11-11T01:46:04.879776",
    "MEAN_MOTION": 15.02538275,
    "ECCENTRICITY": 0.0001216,
    "INCLINATION": 43.0033,
    "RA_OF_ASC_NODE": 83.0771,
    "ARG_OF_PERICENTER": 265.3146,
    "MEAN_ANOMALY": 94.7558,
    "EPHEMERIS_TYPE": 0,
    "CLASSIFICATION_TYPE": "U",
    "NORAD_CAT_ID": 56122,
    "ELEMENT_SET_NO": 999,
    "REV_AT_EPOCH": 14422,
    "BSTAR": 8.8114e-05,
    "MEAN_MOTION_DOT": 9.87e-06,
    "MEAN_MOTION_DDOT": 0.0,
    "TLE_LINE1": "1 56122U 23046AF  25315.07366759  .00000987  00000+0  88114-4 0  9999",
    "TLE_LINE2": "2 56122  43.0033  83.0771 0001216 265.3146  94.7558 15.02538275144223",
    "COMMENT": "Grouped by shell and plane from TLE"
  },
  {
    "OBJECT_NAME": "STARLINK-5990",
    "OBJECT_ID": "23064A",
    "EPOCH": "2025-11-11T07:40:34.115520",
    "MEAN_MOTION": 14.98332519,
    "ECCENTRICITY": 0.0002797,
    "INCLINATION": 70.0001,
    "RA_OF_ASC_NODE": 82.982,
    "ARG_OF_PERICENTER": 277.6573,
    "MEAN_ANOMALY": 82.4268,
    "EPHEMERIS_TYPE": 0,
    "CLASSIFICATION_TYPE": "U",
    "NORAD_CAT_ID": 56448,
    "ELEMENT_SET_NO": 999,
    "REV_AT_EPOCH": 13751,
    "BSTAR": 4.2283e-05,
    "MEAN_MOTION_DOT": 4.12e-06,
    "MEAN_MOTION_DDOT": 0.0,
    "TLE_LINE1": "1 56448U 23064A   25315.31983930  .00000412  00000+0  42283-4 0  9993",
    "TLE_LINE2": "2 56448  70.0001  82.9820 0002797 277.6573  82.4268 14.98332519137510",
    "COMMENT": "Grouped by shell and plane from TLE"
  },
  {
    "OBJECT_NAME": "STARLINK-5993",
    "OBJECT_ID": "23064B",
    "EPOCH": "2025-11-11T01:45:50.986656",
    "MEAN_MOTION": 14.9833328,
    "ECCENTRICITY": 0.0003009,
    "INCLINATION": 69.9991,
    "RA_OF_ASC_NODE": 83.7256,
    "ARG_OF_PERICENTER": 270.926,
    "MEAN_ANOMALY": 89.1554,
    "EPHEMERIS_TYPE": 0,
    "CLASSIFICATION_TYPE": "U",
    "NORAD_CAT_ID": 56449,
    "ELEMENT_SET_NO": 999,
    "REV_AT_EPOCH": 13747,
    "BSTAR": 2.9122e-05,
    "MEAN_MOTION_DOT": 2.55e-06,
    "MEAN_MOTION_DDOT": 0.0,
    "TLE_LINE1": "1 56449U 23064B   25315.07350679  .00000255  00000+0  29122-4 0  9997",
    "TLE_LINE2": "2 56449  69.9991  83.7256 0003009 270.9260  89.1554 14.98333280137477",
    "COMMENT": "Grouped by shell and plane from TLE"
  },
  {
    "OBJECT_NAME": "STARLINK-5970",
    "OBJECT_ID": "23064C",
    "EPOCH": "2025-11-11T07:34:34.789152",
    "MEAN_MOTION": 14.98336536,
    "ECCENTRICITY": 0.0003008,
    "INCLINATION": 69.9987,
    "RA_OF_ASC_NODE": 82.9662,
    "ARG_OF_PERICENTER": 268.6607,
    "MEAN_ANOMALY": 91.4208,
    "EPHEMERIS_TYPE": 0,
    "CLASSIFICATION_TYPE": "U",
    "NORAD_CAT_ID": 56450,
    "ELEMENT_SET_NO": 999,
    "REV_AT_EPOCH": 13751,
    "BSTAR": 0.00017088000000000002,
    "MEAN_MOTION_DOT": 1.947e-05,
    "MEAN_MOTION_DDOT": 0.0,
    "TLE_LINE1": "1 56450U 23064C   25315.31568043  .00001947  00000+0  17088-3 0  9998",
    "TLE_LINE2": "2 56450  69.9987  82.9662 0003008 268.6607  91.4208 14.98336536137518",
    "COMMENT": "Grouped by shell and plane from TLE"
  },
  {
    "OBJECT_NAME": "STARLINK-5985",
    "OBJECT_ID": "23064D",
    "EPOCH": "2025-11-10T11:14:37.886784",
    "MEAN_MOTION": 14.98334138,
    "ECCENTRICITY": 0.0003032,
    "INCLINATION": 69.9994,
    "RA_OF_ASC_NODE": 85.2259,
    "ARG_OF_PERICENTER": 270.2802,
    "MEAN_ANOMALY": 89.8009,
    "EPHEMERIS_TYPE": 0,
    "CLASSIFICATION_TYPE": "U",
    "NORAD_CAT_ID": 56451,
    "ELEMENT_SET_NO": 999,
    "REV_AT_EPOCH": 13738,
    "BSTAR": 3.9788000000000006e-05,
    "MEAN_MOTION_DOT": 3.82e-06,
    "MEAN_MOTION_DDOT": 0.0,
    "TLE_LINE1": "1 56451U 23064D   25314.46849406  .00000382  00000+0  39788-4 0  9993",
    "TLE_LINE2": "2 56451  69.9994  85.2259 0003032 270.2802  89.8009 14.98334138137389",
    "COMMENT": "Grouped by shell and plane from TLE"
  },
  {
    "OBJECT_NAME": "STARLINK-5986",
    "OBJECT_ID": "23064E",
    "EPOCH": "2025-11-11T01:33:50.055552",
    "MEAN_MOTION": 14.98346012,
    "ECCENTRICITY": 0.0003167,
    "INCLINATION": 69.9994,
    "RA_OF_ASC_NODE": 83.6966,
    "ARG_OF_PERICENTER": 271.118,
    "MEAN_ANOMALY": 88.9617,
    "EPHEMERIS_TYPE": 0,
    "CLASSIFICATION_TYPE": "U",
    "NORAD_CAT_ID": 56452,
    "ELEMENT_SET_NO": 999,
    "REV_AT_EPOCH": 13747,
    "BSTAR": 0.00012181,
    "MEAN_MOTION_DOT": 1.361e-05,
    "MEAN_MOTION_DDOT": 0.0,
    "TLE_LINE1": "1 56452U 23064E   25315.06516268  .00001361  00000+0  12181-3 0  9993",
    "TLE_LINE2": "2 56452  69.9994  83.6966 0003167 271.1180  88.9617 14.98346012137474",
    "COMMENT": "Grouped by shell and plane from TLE"
  },
  {
    "OBJECT_NAME": "STARLINK-5935",
    "OBJECT_ID": "23064F",
    "EPOCH": "2025-11-11T01:27:48.582144",
    "MEAN_MOTION": 14.98347298,
    "ECCENTRICITY": 0.0003231,
    "INCLINATION": 69.9995,
    "RA_OF_ASC_NODE": 83.6825,
    "ARG_OF_PERICENTER": 269.3302,
    "MEAN_ANOMALY": 90.7487,
    "EPHEMERIS_TYPE": 0,
    "CLASSIFICATION_TYPE": "U",
    "NORAD_CAT_ID": 56453,
    "ELEMENT_SET_NO": 999,
    "REV_AT_EPOCH": 13747,
    "BSTAR": 0.0,
    "MEAN_MOTION_DOT": -4.046e-05,
    "MEAN_MOTION_DDOT": 0.0,
    "TLE_LINE1": "1 56453U 23064F   25315.06097896 -.00004046  00000+0 -33137-3 0  9994",
    "TLE_LINE2": "2 56453  69.9995  83.6825 0003231 269.3302  90.7487 14.98347298137470",
    "COMMENT": "Grouped by shell and plane from TLE"
  },
  {
    "OBJECT_NAME": "STARLINK-5959",
    "OBJECT_ID": "23064G",
    "EPOCH": "2025-11-11T07:22:17.791104",
    "MEAN_MOTION": 14.98332114,
    "ECCENTRICITY": 0.0003148,
    "INCLINATION": 69.9996,
    "RA_OF_ASC_NODE": 82.9367,
    "ARG_OF_PERICENTER": 271.061,
    "MEAN_ANOMALY": 89.0188,
    "EPHEMERIS_TYPE": 0,
    "CLASSIFICATION_TYPE": "U",
    "NORAD_CAT_ID": 56454,
    "ELEMENT_SET_NO": 999,
    "REV_AT_EPOCH": 13751,
    "BSTAR": 1.0316e-05,
    "MEAN_MOTION_DOT": 3e-07,
    "MEAN_MOTION_DDOT": 0.0,
    "TLE_LINE1": "1 56454U 23064G   25315.30715036  .00000030  00000+0  10316-4 0  9997",
    "TLE_LINE2": "2 56454  69.9996  82.9367 0003148 271.0610  89.0188 14.98332114137519",
    "COMMENT": "Grouped by shell and plane from TLE"
  },
  {
    "OBJECT_NAME": "STARLINK-5987",
    "OBJECT_ID": "23064H",
    "EPOCH": "2025-11-11T07:16:17.212800",
    "MEAN_MOTION": 14.9833804,
    "ECCENTRICITY": 0.0002982,
    "INCLINATION": 69.9995,
    "RA_OF_ASC_NODE": 82.9217,
    "ARG_OF_PERICENTER": 272.2665,
    "MEAN_ANOMALY": 87.8153,
    "EPHEMERIS_TYPE": 0,
    "CLASSIFICATION_TYPE": "U",
    "NORAD_CAT_ID": 56455,
    "ELEMENT_SET_NO": 999,
    "REV_AT_EPOCH": 13751,
    "BSTAR": 0.00012787,
    "MEAN_MOTION_DOT": 1.433e-05,
    "MEAN_MOTION_DDOT": 0.0,
    "TLE_LINE1": "1 56455U 23064H   25315.30297700  .00001433  00000+0  12787-3 0  9992",
    "TLE_LINE2": "2 56455  69.9995  82.9217 0002982 272.2665  87.8153 14.98338040137513",
    "COMMENT": "Grouped by shell and plane from TLE"
  },
  {
    "OBJECT_NAME": "STARLINK-5995",
    "OBJECT_ID": "23064J",
    "EPOCH": "2025-11-11T07:34:19.176672",
    "MEAN_MOTION": 14.98335696,
    "ECCENTRICITY": 0.0002961,
    "INCLINATION": 69.9993,
    "RA_OF_ASC_NODE": 82.9664,
    "ARG_OF_PERICENTER": 266.5454,
    "MEAN_ANOMALY": 93.5366,
    "EPHEMERIS_TYPE": 0,
    "CLASSIFICATION_TYPE": "U",
    "NORAD_CAT_ID": 56456,
    "ELEMENT_SET_NO": 999,
    "REV_AT_EPOCH": 13751,
    "BSTAR": 7.674e-07,
    "MEAN_MOTION_DOT": -8.4e-07,
    "MEAN_MOTION_DDOT": 0.0,
    "TLE_LINE1": "1 56456U 23064J   25315.31549973 -.00000084  00000+0  76740-6 0  9990",
    "TLE_LINE2": "2 56456  69.9993  82.9664 0002961 266.5454  93.5366 14.98335696137511",
    "COMMENT": "Grouped by shell and plane from TLE"
  }
]